ONEWEB-0403             
1 50483U 21132Q   24146.42194160  .00000075  00000+0  15761-3 0  9997
2 50483  87.9124 125.3108 0001820  88.2320 271.9021 13.18686739123669
ONEWEB-0404             
1 50484U 21132R   24145.82461255  .00000760  00000+0  21081-2 0  9995
2 50484  87.8975 170.9474 0001631  86.0853 274.0461 13.11417381116956
ONEWEB-0405             
1 50485U 21132S   24145.90660607 -.00000011  00000+0 -60943-4 0  9990
2 50485  87.9124 125.4032 0001878  99.8868 260.2476 13.18686909124009
ONEWEB-0406             
1 50486U 21132T   24146.42667420  .00000112  00000+0  25222-3 0  9999
2 50486  87.9126 125.3103 0001853  75.8851 284.2487 13.18688730123707
ONEWEB-0407             
1 50487U 21132U   24146.49623499  .00000075  00000+0  15795-3 0  9997
2 50487  87.9121 125.2995 0001915  88.3844 271.7507 13.18687566123655
ONEWEB-0409             
1 50488U 21132V   24145.82290786  .00000385  00000+0  10498-2 0  9991
2 50488  87.8967 170.9464 0001953  67.2075 292.9259 13.11419253116846
ONEWEB-0412             
1 50489U 21132W   24145.95401717 -.00005009  00000+0 -12741-1 0  9996
2 50489  87.9130 125.4065 0002044  91.6156 268.5210 13.18707888122388
ONEWEB-0413             
1 50490U 21132X   24145.95876722  .00000214  00000+0  50936-3 0  9991
2 50490  87.9119 125.4191 0001924  89.8100 270.3252 13.18683094123617
